STARLINK-3118           
1 49140U 21082L   24235.58335648  .00134417  00000+0  71923-3 0  9993
2 49140  69.9938 203.4474 0007173 242.6218 352.2389 15.79765647  6017
STARLINK-3093           
1 49141U 21082M   24235.52128013  .00000160  00000+0  21233-4 0  9991
2 49141  69.9982 276.9331 0003188 271.0792  89.0002 14.98333504162674
STARLINK-3042           
1 49142U 21082N   24235.74613720 -.00001302  00000+0 -10134-3 0  9998
2 49142  69.9989 236.3547 0003281 270.5834  89.4949 14.98325334162492
STARLINK-3109           
1 49143U 21082P   24235.48766807  .00000197  00000+0  24325-4 0  9992
2 49143  69.9979 257.0105 0003138 269.5505  90.5294 14.98331372163076
STARLINK-3100           
1 49144U 21082Q   24235.51293234  .00000108  00000+0  16806-4 0  9993
2 49144  69.9984 276.9344 0002980 270.1940  89.8878 14.98333401161479
STARLINK-3119           
1 49145U 21082R   24235.39564191 -.00000212  00000+0 -10006-4 0  9997
2 49145  69.9995 237.2258 0002885 268.4575  91.6253 14.98328350162436
STARLINK-3116           
1 49146U 21082S   24235.48350929  .00000564  00000+0  55029-4 0  9992
2 49146  69.9977 257.0250 0003482 272.6905  87.3855 14.98329951163111
STARLINK-3071           
1 49147U 21082T   24235.74196855  .00000934  00000+0  86091-4 0  9992
2 49147  69.9986 236.3702 0003242 272.9064  87.1723 14.98320773163662
STARLINK-3048           
1 49148U 21082U   24235.47515553  .00000411  00000+0  42219-4 0  9997
2 49148  69.9981 257.0254 0003097 270.1995  89.8810 14.98336253161957
STARLINK-3053           
1 49149U 21082V   24235.50876024  .00000135  00000+0  19105-4 0  9996
2 49149  69.9985 276.9492 0003009 267.0425  93.0390 14.98335861162665
STARLINK-3104           
1 49150U 21082W   24235.50458863  .00000225  00000+0  26666-4 0  9995
2 49150  69.9986 276.9631 0002997 268.6461  91.4355 14.98334581162666
STARLINK-3102           
1 49151U 21082X   24235.38729281  .00000533  00000+0  52429-4 0  9995
2 49151  69.9990 237.2549 0002987 270.8073  89.2744 14.98333720163632
STARLINK-3081           
1 49152U 21082Y   24235.42902165 -.00000246  00000+0 -12794-4 0  9999
2 49152  69.9989 237.1422 0002941 269.0457  91.0365 14.98328813163565
STARLINK-3072           
1 49153U 21082Z   24235.44571111  .00000018  00000+0  92961-5 0  9995
2 49153  69.9991 237.1146 0002996 269.5430  90.5386 14.98332166163651
STARLINK-3068           
1 49154U 21082AA  24235.47097471  .00002991  00000+0  25836-3 0  9998
2 49154  69.9987 257.0396 0003140 269.1291  90.9508 14.98330462163037
STARLINK-3060           
1 49155U 21082AB  24235.37477715  .00000494  00000+0  49188-4 0  9994
2 49155  69.9991 237.2969 0002847 263.9198  96.1637 14.98333979163510
STARLINK-3085           
1 49156U 21082AC  24235.75448211  .00003384  00000+0  29118-3 0  9997
2 49156  69.9998 236.3261 0003291 264.7233  95.3551 14.98344908163572
STARLINK-3051           
1 49157U 21082AD  24235.46679614 -.00000836  00000+0 -62303-4 0  9994
2 49157  69.9984 257.0508 0002920 267.6219  92.4605 14.98328917163059
STARLINK-3083           
1 49158U 21082AE  24235.73308421  .00013177  00000+0  69183-3 0  9992
2 49158  69.9917 241.5547 0003229 299.0476  61.0368 15.15850089163467
STARLINK-3056           
1 49159U 21082AF  24235.83423296  .00004394  00000+0  37573-3 0  9991
2 49159  69.9980 276.1348 0003610 270.5767  89.4979 14.98338423162613
STARLINK-3095           
1 49160U 21082AG  24235.55466146  .00000950  00000+0  87414-4 0  9997
2 49160  69.9987 276.8233 0002959 269.4936  90.5884 14.98332799162542
STARLINK-3080           
1 49161U 21082AH  24235.82586989  .00000028  00000+0  10101-4 0  9991
2 49161  69.9984 276.1367 0003005 271.5566  88.5249 14.98332844162595
STARLINK-3082           
1 49162U 21082AJ  24235.55483354 -.00000910  00000+0 -68468-4 0  9995
2 49162  69.9991 276.8526 0002879 269.1313  90.9516 14.98328191162638
STARLINK-3088           
1 49163U 21082AK  24235.45845960  .00001295  00000+0  11637-3 0  9990
2 49163  69.9984 257.0802 0002961 269.6109  90.4711 14.98320985163118
STARLINK-3106           
1 49164U 21082AL  24235.45011374  .00000453  00000+0  45729-4 0  9990
2 49164  69.9982 257.1089 0003145 269.2901  90.7898 14.98332936163125
STARLINK-3052           
1 49165U 21082AM  24235.55048759  .00000266  00000+0  30093-4 0  9999
2 49165  69.9982 276.8664 0002973 268.6680  91.4138 14.98334076162679
STARLINK-3089           
1 49166U 21082AN  24235.45429025 -.00000234  00000+0 -11814-4 0  9995
2 49166  69.9982 257.0941 0003024 268.2068  91.8745 14.98329584163153
STARLINK-3054           
1 49167U 21082AP  24235.54214194  .00000862  00000+0  80021-4 0  9996
2 49167  69.9982 276.8650 0003139 265.2177  94.8623 14.98335746162676
STARLINK-3101           
1 49168U 21082AQ  24235.43759540  .00000312  00000+0  33976-4 0  9991
2 49168  69.9985 257.1220 0002791 276.8146  83.2695 14.98331944163153
STARLINK-3046           
1 49169U 21082AR  24235.51272179 -.00002352  00000+0 -18949-3 0  9999
2 49169  69.9986 256.9541 0002973 274.5531  85.5288 14.98314790161963
