OBJECT_NAME,OBJECT_ID,EPOCH,MEAN_MOTION,ECCENTRICITY,INCLINATION,RA_OF_ASC_NODE,ARG_OF_PERICENTER,MEAN_ANOMALY,EPHEMERIS_TYPE,CLASSIFICATION_TYPE,NORAD_CAT_ID,ELEMENT_SET_NO,REV_AT_EPOCH,BSTAR,MEAN_MOTION_DOT,MEAN_MOTION_DDOT
STARLINK-3118,2021-082L,2024-08-22T14:00:01.999872,15.79765647,.0007173,69.9938,203.4474,242.6218,352.2389,0,U,49140,999,601,.71923E-3,.134417E-2,0
STARLINK-3093,2021-082M,2024-08-22T12:30:38.603232,14.98333504,.0003188,69.9982,276.9331,271.0792,89.0002,0,U,49141,999,16267,.21233E-4,.16E-5,0
STARLINK-3042,2021-082N,2024-08-22T17:54:26.254080,14.98325334,.0003281,69.9989,236.3547,270.5834,89.4949,0,U,49142,999,16249,-.10134E-3,-.1302E-4,0
STARLINK-3109,2021-082P,2024-08-22T11:42:14.521248,14.98331372,.0003138,69.9979,257.0105,269.5505,90.5294,0,U,49143,999,16307,.24325E-4,.197E-5,0
STARLINK-3100,2021-082Q,2024-08-22T12:18:37.354176,14.98333401,.000298,69.9984,276.9344,270.1940,89.8878,0,U,49144,999,16147,.16806E-4,.108E-5,0
STARLINK-3119,2021-082R,2024-08-22T09:29:43.461024,14.98328350,.0002885,69.9995,237.2258,268.4575,91.6253,0,U,49145,999,16243,-.10006E-4,-.212E-5,0
STARLINK-3116,2021-082S,2024-08-22T11:36:15.202656,14.98329951,.0003482,69.9977,257.0250,272.6905,87.3855,0,U,49146,999,16311,.55029E-4,.564E-5,0
STARLINK-3071,2021-082T,2024-08-22T17:48:26.082720,14.98320773,.0003242,69.9986,236.3702,272.9064,87.1723,0,U,49147,999,16366,.86091E-4,.934E-5,0
STARLINK-3048,2021-082U,2024-08-22T11:24:13.437792,14.98336253,.0003097,69.9981,257.0254,270.1995,89.8810,0,U,49148,999,16195,.42219E-4,.411E-5,0
STARLINK-3053,2021-082V,2024-08-22T12:12:36.884736,14.98335861,.0003009,69.9985,276.9492,267.0425,93.0390,0,U,49149,999,16266,.19105E-4,.135E-5,0
STARLINK-3104,2021-082W,2024-08-22T12:06:36.457632,14.98334581,.0002997,69.9986,276.9631,268.6461,91.4355,0,U,49150,999,16266,.26666E-4,.225E-5,0
STARLINK-3102,2021-082X,2024-08-22T09:17:42.098784,14.98333720,.0002987,69.9990,237.2549,270.8073,89.2744,0,U,49151,999,16363,.52429E-4,.533E-5,0
STARLINK-3081,2021-082Y,2024-08-22T10:17:47.470560,14.98328813,.0002941,69.9989,237.1422,269.0457,91.0365,0,U,49152,999,16356,-.12794E-4,-.246E-5,0
STARLINK-3072,2021-082Z,2024-08-22T10:41:49.439904,14.98332166,.0002996,69.9991,237.1146,269.5430,90.5386,0,U,49153,999,16365,.92961E-5,.18E-6,0
STARLINK-3068,2021-082AA,2024-08-22T11:18:12.214944,14.98330462,.000314,69.9987,257.0396,269.1291,90.9508,0,U,49154,999,16303,.25836E-3,.2991E-4,0
STARLINK-3060,2021-082AB,2024-08-22T08:59:40.745760,14.98333979,.0002847,69.9991,237.2969,263.9198,96.1637,0,U,49155,999,16351,.49188E-4,.494E-5,0
STARLINK-3085,2021-082AC,2024-08-22T18:06:27.254304,14.98344908,.0003291,69.9998,236.3261,264.7233,95.3551,0,U,49156,999,16357,.29118E-3,.3384E-4,0
STARLINK-3051,2021-082AD,2024-08-22T11:12:11.186496,14.98328917,.000292,69.9984,257.0508,267.6219,92.4605,0,U,49157,999,16305,-.62303E-4,-.836E-5,0
STARLINK-3083,2021-082AE,2024-08-22T17:35:38.475744,15.15850089,.0003229,69.9917,241.5547,299.0476,61.0368,0,U,49158,999,16346,.69183E-3,.13177E-3,0
STARLINK-3056,2021-082AF,2024-08-22T20:01:17.727744,14.98338423,.000361,69.9980,276.1348,270.5767,89.4979,0,U,49159,999,16261,.37573E-3,.4394E-4,0
STARLINK-3095,2021-082AG,2024-08-22T13:18:42.750144,14.98332799,.0002959,69.9987,276.8233,269.4936,90.5884,0,U,49160,999,16254,.87414E-4,.95E-5,0
STARLINK-3080,2021-082AH,2024-08-22T19:49:15.158496,14.98332844,.0003005,69.9984,276.1367,271.5566,88.5249,0,U,49161,999,16259,.10101E-4,.28E-6,0
STARLINK-3082,2021-082AJ,2024-08-22T13:18:57.617856,14.98328191,.0002879,69.9991,276.8526,269.1313,90.9516,0,U,49162,999,16263,-.68468E-4,-.91E-5,0
STARLINK-3088,2021-082AK,2024-08-22T11:00:10.909440,14.98320985,.0002961,69.9984,257.0802,269.6109,90.4711,0,U,49163,999,16311,.11637E-3,.1295E-4,0
STARLINK-3106,2021-082AL,2024-08-22T10:48:09.827136,14.98332936,.0003145,69.9982,257.1089,269.2901,90.7898,0,U,49164,999,16312,.45729E-4,.453E-5,0
STARLINK-3052,2021-082AM,2024-08-22T13:12:42.127776,14.98334076,.0002973,69.9982,276.8664,268.6680,91.4138,0,U,49165,999,16267,.30093E-4,.266E-5,0
STARLINK-3089,2021-082AN,2024-08-22T10:54:10.677600,14.98329584,.0003024,69.9982,257.0941,268.2068,91.8745,0,U,49166,999,16315,-.11814E-4,-.234E-5,0
STARLINK-3054,2021-082AP,2024-08-22T13:00:41.063616,14.98335746,.0003139,69.9982,276.8650,265.2177,94.8623,0,U,49167,999,16267,.80021E-4,.862E-5,0
STARLINK-3101,2021-082AQ,2024-08-22T10:30:08.242560,14.98331944,.0002791,69.9985,257.1220,276.8146,83.2695,0,U,49168,999,16315,.33976E-4,.312E-5,0
STARLINK-3046,2021-082AR,2024-08-22T12:18:19.162656,14.98314790,.0002973,69.9986,256.9541,274.5531,85.5288,0,U,49169,999,16196,-.18949E-3,-.2352E-4,0
